IRIDIUM 63              
1 25286U 98021B   25257.12794179  .00000376  00000+0  12135-3 0  9994
2 25286  86.3970  44.7901 0002097  86.2482 273.8955 14.36609966436610
IRIDIUM 69              
1 25319U 98026A   25257.14516223  .00000340  00000+0  99688-4 0  9990
2 25319  86.3937  57.7976 0004506  90.6612 269.5104 14.41043515435870
IRIDIUM 71              
1 25320U 98026B   25257.14058313  .00000380  00000+0  11161-3 0  9996
2 25320  86.3946  52.4769 0003669 121.2554 238.9006 14.41225171436400
IRIDIUM 73              
1 25344U 98032C   25257.04576238  .00000506  00000+0  12065-3 0  9993
2 25344  86.4466   9.0731 0002766  83.8183 276.3338 14.51814254443453
IRIDIUM 82              
1 25467U 98051A   25257.19389557  .00019773  00000+0  50191-3 0  9990
2 25467  86.3615  65.8100 0076336 318.5337  41.0137 15.36501348437602
